NORAD_CAT_ID,OBJECT_NAME,OBJECT_TYPE,EPOCH,MEAN_MOTION,ECCENTRICITY,INCLINATION,RA_OF_ASC_NODE,ARG_OF_PERICENTER,MEAN_ANOMALY,BSTAR,MEAN_MOTION_DOT,MEAN_MOTION_DDOT,TLE_LINE0,TLE_LINE1,TLE_LINE2,SEMIMAJOR_AXIS,PERIOD,APOGEE,PERIGEE,DECAYED
52538.0,STARLINK-3933,PAYLOAD,2022-12-03 13:44:48,15.0883359,0.0001845,53.2165,80.7495,44.4278,315.6862,-1.6926e-05,-5.57e-06,0.0,0 STARLINK-3933,1 52538U 22051F   22337.57278368 -.00000557  00000-0 -16926-4 0  9993,2 52538  53.2165  80.7495 0001845  44.4278 315.6862 15.08833590 31543,6917.9,95.438,541.0409999999998,538.489,0.0
52538.0,STARLINK-3933,PAYLOAD,2022-12-03 16:55:34,15.08836532,0.0001865,53.2167,80.1552,45.9815,314.1331,1.775e-05,-6e-08,0.0,0 STARLINK-3933,1 52538U 22051F   22337.70526359 -.00000006  00000-0  17750-4 0  9998,2 52538  53.2167  80.1552 0001865  45.9815 314.1331 15.08836532 31496,6917.891,95.438,541.0459999999998,538.466,0.0
52538.0,STARLINK-3933,PAYLOAD,2022-12-04 13:35:35,15.08836522,0.0001834,53.2168,76.289,42.8531,317.2603,9.373e-05,1.204e-05,0.0,0 STARLINK-3933,1 52538U 22051F   22338.56638585  .00001204  00000-0  93730-4 0  9990,2 52538  53.2168  76.2890 0001834  42.8531 317.2603 15.08836522 31625,6917.891,95.438,541.025,538.487,0.0
52538.0,STARLINK-3933,PAYLOAD,2022-12-04 18:21:45,15.08841924,0.0001849,53.2169,75.39699999999998,41.2416,318.8716,0.00019899,2.88e-05,0.0,0 STARLINK-3933,1 52538U 22051F   22338.76510442  .00002880  00000-0  19899-3 0  9997,2 52538  53.2169  75.3970 0001849  41.2416 318.8716 15.08841924 31721,6917.875,95.437,541.019,538.46,0.0
52538.0,STARLINK-3933,PAYLOAD,2022-12-04 19:57:08,15.0884695,0.0001842,53.2169,75.0996,41.0309,319.0822,0.00032601,4.905e-05,0.0,0 STARLINK-3933,1 52538U 22051F   22338.83134347  .00004905  00000-0  32601-3 0  9997,2 52538  53.2169  75.0996 0001842  41.0309 319.0822 15.08846950 31666,6917.859,95.437,540.998,538.45,0.0
52538.0,STARLINK-3933,PAYLOAD,2022-12-05 13:26:22,15.08851488,0.0001891,53.2171,71.8289,39.7655,320.3476,0.00036268,5.489999999999999e-05,0.0,0 STARLINK-3933,1 52538U 22051F   22339.55998080  .00005490  00000-0  36268-3 0  9992,2 52538  53.2171  71.8289 0001891  39.7655 320.3476 15.08851488 31774,6917.845,95.437,541.018,538.4019999999998,0.0
52538.0,STARLINK-3933,PAYLOAD,2022-12-05 18:12:31,15.08858171,0.0001894,53.2171,70.9366,39.8871,320.226,0.00049363,7.581e-05,0.0,0 STARLINK-3933,1 52538U 22051F   22339.75869772  .00007581  00000-0  49363-3 0  9992,2 52538  53.2171  70.9366 0001894  39.8871 320.2260 15.08858171 31804,6917.825,95.436,541.0,538.38,0.0
52538.0,STARLINK-3933,PAYLOAD,2022-12-06 05:20:13,15.08856382,0.0001929,53.2171,68.8551,41.813,318.3009,0.00028321,4.224e-05,0.0,0 STARLINK-3933,1 52538U 22051F   22340.22237369  .00004224  00000-0  28321-3 0  9999,2 52538  53.2171  68.8551 0001929  41.8130 318.3009 15.08856382 31942,6917.83,95.437,541.03,538.361,0.0
52538.0,STARLINK-3933,PAYLOAD,2022-12-06 13:17:09,15.08840143,0.0001814,53.2172,67.3681,41.0112,319.1016,-9.5256e-05,-1.804e-05,0.0,0 STARLINK-3933,1 52538U 22051F   22340.55357715 -.00001804  00000-0 -95256-4 0  9998,2 52538  53.2172  67.3681 0001814  41.0112 319.1016 15.08840143 31929,6917.88,95.438,541.0,538.49,0.0
52538.0,STARLINK-3933,PAYLOAD,2022-12-06 14:52:33,15.08825834,0.000183,53.2178,67.0714,38.5545,321.5578,9.2138e-06,-1.42e-06,0.0,0 STARLINK-3933,1 52538U 22051F   22340.61983237 -.00000142  00000-0  92138-5 0  9999,2 52538  53.2178  67.0714 0001830  38.5545 321.5578 15.08825834 32008,6917.924,95.438,541.055,538.523,0.0
52538.0,STARLINK-3933,PAYLOAD,2022-12-06 21:14:06,15.08825904,0.0001822,53.2177,65.882,38.669,321.4433,-6.2913e-05,-1.289e-05,0.0,0 STARLINK-3933,1 52538U 22051F   22340.88479446 -.00001289  00000-0 -62913-4 0  9991,2 52538  53.2177  65.8820 0001822  38.6690 321.4433 15.08825904 31976,6917.9230000000025,95.438,541.049,538.528,0.0
52538.0,STARLINK-3933,PAYLOAD,2022-12-07 06:46:24,15.08835272,0.0001861,53.2177,64.0977,39.1516,320.9611,-6.7402e-05,-1.361e-05,0.0,0 STARLINK-3933,1 52538U 22051F   22341.28223074 -.00001361  00000-0 -67402-4 0  9999,2 52538  53.2177  64.0977 0001861  39.1516 320.9611 15.08835272 32103,6917.895,95.438,541.047,538.472,0.0
52538.0,STARLINK-3933,PAYLOAD,2022-12-07 14:43:20,15.08830385,0.0001891,53.2178,62.611,41.0539,319.0596,-2.5963e-05,-7.01e-06,0.0,0 STARLINK-3933,1 52538U 22051F   22341.61343434 -.00000701  00000-0 -25963-4 0  9992,2 52538  53.2178  62.6110 0001891  41.0539 319.0596 15.08830385 32085,6917.91,95.438,541.0830000000002,538.467,0.0
52538.0,STARLINK-3933,PAYLOAD,2022-12-08 05:01:48,15.08845094,0.0001966,53.2179,59.9346,40.3032,319.8106,-4.3392e-05,-9.79e-06,0.0,0 STARLINK-3933,1 52538U 22051F   22342.20958647 -.00000979  00000-0 -43392-4 0  9999,2 52538  53.2179  59.9346 0001966  40.3032 319.8106 15.08845094 32245,6917.865,95.437,541.09,538.37,0.0
52538.0,STARLINK-3933,PAYLOAD,2022-12-08 12:58:42,15.08853674,0.0002057,53.2179,58.448,42.9468,317.1685,0.00015524,2.184e-05,0.0,0 STARLINK-3933,1 52538U 22051F   22342.54077545  .00002184  00000-0  15524-3 0  9998,2 52538  53.2179  58.4480 0002057  42.9468 317.1685 15.08853674 32225,6917.839,95.437,541.127,538.281,0.0
52538.0,STARLINK-3933,PAYLOAD,2022-12-09 09:38:45,15.08834137,0.0001933,53.2185,54.5827,29.6467,330.4635,2.4386e-05,1e-06,0.0,0 STARLINK-3933,1 52538U 22051F   22343.40191548  .00000100  00000-0  24386-4 0  9997,2 52538  53.2185  54.5827 0001933  29.6467 330.4635 15.08834137 32357,6917.898,95.438,541.101,538.4259999999998,0.0
52538.0,STARLINK-3933,PAYLOAD,2022-12-09 14:24:54,15.08836593,0.0001733,53.2189,53.6895,58.4979,301.6183,5.9079e-05,6.52e-06,0.0,0 STARLINK-3933,1 52538U 22051F   22343.60063286  .00000652  00000-0  59079-4 0  9995,2 52538  53.2189  53.6895 0001733  58.4979 301.6183 15.08836593 32459,6917.891,95.438,540.955,538.557,0.0
52538.0,STARLINK-3933,PAYLOAD,2022-12-10 12:40:17,15.0885352,0.0002031,53.2182,49.5268,38.236,321.8775,1.2673e-05,-8.6e-07,0.0,0 STARLINK-3933,1 52538U 22051F   22344.52798329 -.00000086  00000-0  12673-4 0  9991,2 52538  53.2182  49.5268 0002031  38.2360 321.8775 15.08853520 32597,6917.839,95.437,541.109,538.299,0.0
52538.0,STARLINK-3933,PAYLOAD,2022-12-11 04:34:09,15.08839884,0.0001904,53.2182,46.5528,38.4907,321.6221,8.3477e-05,1.041e-05,0.0,0 STARLINK-3933,1 52538U 22051F   22345.19038845  .00001041  00000-0  83477-4 0  9996,2 52538  53.2182  46.5528 0001904  38.4907 321.6221 15.08839884 32692,6917.880999999999,95.438,541.063,538.429,0.0
52538.0,STARLINK-3933,PAYLOAD,2022-12-11 10:55:42,15.08838697,0.0001907,53.2183,45.3633,38.8995,321.2134,6.517199999999999e-05,7.49e-06,0.0,0 STARLINK-3933,1 52538U 22051F   22345.45534978  .00000749  00000-0  65172-4 0  9999,2 52538  53.2183  45.3633 0001907  38.8995 321.2134 15.08838697 32668,6917.884,95.438,541.069,538.43,0.0
52538.0,STARLINK-3933,PAYLOAD,2022-12-12 12:21:52,15.08835066,0.0001895,53.2186,40.6045,40.5192,319.5941,-7.768300000000001e-05,-1.524e-05,0.0,0 STARLINK-3933,1 52538U 22051F   22346.51519421 -.00001524  00000-0 -77683-4 0  9997,2 52538  53.2186  40.6045 0001895  40.5192 319.5941 15.08835066 32899,6917.895,95.438,541.071,538.45,0.0
52538.0,STARLINK-3933,PAYLOAD,2022-12-12 20:18:47,15.08845408,0.0002142,53.2187,39.1195,34.1047,326.0083,1.625e-05,-3e-07,0.0,0 STARLINK-3933,1 52538U 22051F   22346.84638485 -.00000030  00000-0  16250-4 0  9998,2 52538  53.2187  39.1195 0002142  34.1047 326.0083 15.08845408 32872,6917.864000000001,95.437,541.211,538.247,0.0
52538.0,STARLINK-3933,PAYLOAD,2022-12-13 04:15:43,15.0883645,0.0001849,53.2202,37.6341,46.9627,313.152,4.7685e-05,4.71e-06,0.0,0 STARLINK-3933,1 52538U 22051F   22347.17758915  .00000471  00000-0  47685-4 0  9990,2 52538  53.2202  37.6341 0001849  46.9627 313.1520 15.08836450 32997,6917.891,95.438,541.035,538.477,0.0
52538.0,STARLINK-3933,PAYLOAD,2022-12-13 12:12:39,15.08834661,0.0002136,53.2186,36.1462,35.2931,324.8202,3.317e-05,2.4e-06,0.0,0 STARLINK-3933,1 52538U 22051F   22347.50879209  .00000240  00000-0  33170-4 0  9995,2 52538  53.2186  36.1462 0002136  35.2931 324.8202 15.08834661 32971,6917.897,95.438,541.239,538.284,0.0
52538.0,STARLINK-3933,PAYLOAD,2022-12-14 12:03:26,15.0883486,0.0002107,53.218,31.6864,33.4162,326.6963,8.7297e-05,1.101e-05,0.0,0 STARLINK-3933,1 52538U 22051F   22348.50239404  .00001101  00000-0  87297-4 0  9999,2 52538  53.2180  31.6864 0002107  33.4162 326.6963 15.08834860 33195,6917.896,95.438,541.219,538.303,0.0
52538.0,STARLINK-3933,PAYLOAD,2022-12-14 20:00:22,15.08840419,0.0002274,53.2178,30.1992,31.9174,328.1956,5.3396e-05,5.62e-06,0.0,0 STARLINK-3933,1 52538U 22051F   22348.83359270  .00000562  00000-0  53396-4 0  9992,2 52538  53.2178  30.1992 0002274  31.9174 328.1956 15.08840419 33173,6917.879,95.438,541.317,538.1709999999998,0.0
52538.0,STARLINK-3933,PAYLOAD,2022-12-15 11:54:14,15.08832158,0.0002256,53.2185,27.2248,34.0198,326.0939,1.4757e-05,-5.3e-07,0.0,0 STARLINK-3933,1 52538U 22051F   22349.49600156 -.00000053  00000-0  14757-4 0  9991,2 52538  53.2185  27.2248 0002256  34.0198 326.0939 15.08832158 33272,6917.904,95.438,541.33,538.2090000000002,0.0
52538.0,STARLINK-3933,PAYLOAD,2022-12-15 19:51:09,15.08838753,0.0002155,53.2184,25.7383,32.4575,327.6549,0.00014746,2.059e-05,0.0,0 STARLINK-3933,1 52538U 22051F   22349.82719402  .00002059  00000-0  14746-3 0  9997,2 52538  53.2184  25.7383 0002155  32.4575 327.6549 15.08838753 33320,6917.884,95.438,541.24,538.258,0.0
52538.0,STARLINK-3933,PAYLOAD,2022-12-16 11:45:01,15.08838261,0.0002335,53.2179,22.7652,33.5213,326.5927,7.2104e-05,8.59e-06,0.0,0 STARLINK-3933,1 52538U 22051F   22350.48959812  .00000859  00000-0  72104-4 0  9991,2 52538  53.2179  22.7652 0002335  33.5213 326.5927 15.08838261 33424,6917.886,95.438,541.366,538.135,0.0
